NORAD_CAT_ID,OBJECT_NAME,OBJECT_TYPE,EPOCH,MEAN_MOTION,ECCENTRICITY,INCLINATION,RA_OF_ASC_NODE,ARG_OF_PERICENTER,MEAN_ANOMALY,BSTAR,MEAN_MOTION_DOT,MEAN_MOTION_DDOT,TLE_LINE0,TLE_LINE1,TLE_LINE2,SEMIMAJOR_AXIS,PERIOD,APOGEE,PERIGEE,DECAYED
53418.0,STARLINK-4481,PAYLOAD,2022-10-19 08:00:01,15.49905845,0.0001351999999999,53.2141,261.7331,85.7855,276.1821,0.00091058,0.00051609,0.0,0 STARLINK-4481,1 53418U 22097AG  22292.33334491  .00051609  00000-0  91058-3 0  9995,2 53418  53.2141 261.7331 0001352  85.7855 276.1821 15.49905845 11459,6795.138000000001,92.909,417.922,416.085,0.0
53418.0,STARLINK-4481,PAYLOAD,2022-10-19 14:00:01,15.49979818,0.0001208,53.2141,260.5369,90.5564,227.1204,-0.0023169,-0.0013022,0.0,0 STARLINK-4481,1 53418U 22097AG  22292.58334491 -.00130220  00000-0 -23169-2 0  9998,2 53418  53.2141 260.5369 0001208  90.5564 227.1204 15.49979818  1303,6794.922,92.904,417.608,415.966,0.0
53418.0,STARLINK-4481,PAYLOAD,2022-10-19 22:00:00,15.49883979,0.0001230999999999,53.2175,258.9361,82.0915,296.4354,6.197e-05,3.067e-05,0.0,0 STARLINK-4481,1 53418U 22097AG  22292.91667824  .00003067  00000-0  61970-4 0  9994,2 53418  53.2175 258.9361 0001231  82.0915 296.4354 15.49883979 11549,6795.2019999999975,92.91,417.904,416.231,0.0
53418.0,STARLINK-4481,PAYLOAD,2022-10-20 08:00:01,15.49828311,9.15e-05,53.2144,256.9534,78.8075,105.9911,0.00079633,0.00044913,0.0,0 STARLINK-4481,1 53418U 22097AG  22293.33334491  .00044913  00000-0  79633-3 0  9991,2 53418  53.2144 256.9534 0000915  78.8075 105.9911 15.49828311 11613,6795.365,92.914,417.852,416.608,0.0
53418.0,STARLINK-4481,PAYLOAD,2022-10-20 14:00:01,15.49865805,8.71e-05,53.2141,255.7572,87.3902,53.05,-0.00031018,-0.00018002,0.0,0 STARLINK-4481,1 53418U 22097AG  22293.58334491 -.00018002  00000-0 -31018-3 0  9995,2 53418  53.2141 255.7572 0000871  87.3902  53.0500 15.49865805  1305,6795.255,92.911,417.712,416.528,0.0
53418.0,STARLINK-4481,PAYLOAD,2022-10-20 22:00:00,15.49867596,9.72e-05,53.2146,254.1619,99.9169,101.4025,0.00040277,0.00022459,0.0,0 STARLINK-4481,1 53418U 22097AG  22293.91667824  .00022459  00000-0  40277-3 0  9997,2 53418  53.2146 254.1619 0000972  99.9169 101.4025 15.49867596  1300,6795.25,92.911,417.776,416.455,0.0
53418.0,STARLINK-4481,PAYLOAD,2022-10-21 06:00:00,15.49861955,0.0001002,53.2145,252.5717,78.9096,183.3098,0.00057565,0.00032328,0.0,0 STARLINK-4481,1 53418U 22097AG  22294.25001157  .00032328  00000-0  57565-3 0  9990,2 53418  53.2145 252.5717 0001002  78.9096 183.3098 15.49861955 11753,6795.267,92.912,417.812,416.451,0.0
53418.0,STARLINK-4481,PAYLOAD,2022-10-21 14:00:01,15.49901619,9.15e-05,53.2142,250.9776,88.8618,234.2629,-0.00023503,-0.00013774,0.0,0 STARLINK-4481,1 53418U 22097AG  22294.58334491 -.00013774  00000-0 -23503-3 0  9997,2 53418  53.2142 250.9776 0000915  88.8618 234.2629 15.49901619  1307,6795.151,92.909,417.637,416.394,0.0
53418.0,STARLINK-4481,PAYLOAD,2022-10-21 22:00:00,15.49911668,9.4e-05,53.2143,249.3816,98.2729,285.772,0.00019469,0.00010624,0.0,0 STARLINK-4481,1 53418U 22097AG  22294.91667824  .00010624  00000-0  19469-3 0  9998,2 53418  53.2143 249.3816 0000940  98.2729 285.7720 15.49911668  1309,6795.121,92.909,417.625,416.347,0.0
53418.0,STARLINK-4481,PAYLOAD,2022-10-22 08:00:01,15.49808676,0.0001195,53.216,247.3901,83.303,106.9579,-0.011179,-0.00587832,0.0,0 STARLINK-4481,1 53418U 22097AG  22295.33334491 -.00587832  00000-0 -11179-1 0  9996,2 53418  53.2160 247.3901 0001195  83.3030 106.9579 15.49808676 11923,6795.422,92.915,418.099,416.475,0.0
53418.0,STARLINK-4481,PAYLOAD,2022-10-22 14:00:01,15.49651941,0.0001226,53.2172,246.1925,90.8125,54.902,-0.02243,-0.01154728,0.0,0 STARLINK-4481,1 53418U 22097AG  22295.58334491 -.01154728  00000-0 -22430-1 0  9990,2 53418  53.2172 246.1925 0001226  90.8125  54.9020 15.49651941  1307,6795.88,92.924,418.579,416.912,0.0
53418.0,STARLINK-4481,PAYLOAD,2022-10-22 22:00:00,15.48840256,0.0001309,53.2167,244.601,84.4762,121.3632,-0.023116,-0.01156187,0.0,0 STARLINK-4481,1 53418U 22097AG  22295.91667824 -.01156187  00000-0 -23116-1 0  9999,2 53418  53.2167 244.6010 0001309  84.4762 121.3632 15.48840256  1303,6798.255,92.973,421.009,419.23,0.0
53418.0,STARLINK-4481,PAYLOAD,2022-10-23 14:00:01,15.47203585,0.0001105,53.2174,241.4235,97.8129,225.3519,-0.0242439999999999,-0.01145752,0.0,0 STARLINK-4481,1 53418U 22097AG  22296.58334491 -.01145752  00000-0 -24244-1 0  9993,2 53418  53.2174 241.4235 0001105  97.8129 225.3519 15.47203585 12111,6803.0480000000025,93.071,425.665,424.161,0.0
53418.0,STARLINK-4481,PAYLOAD,2022-10-23 22:00:00,15.463926,0.0001122,53.2169,239.8381,85.4245,294.9313,-0.024998,-0.01148266,0.0,0 STARLINK-4481,1 53418U 22097AG  22296.91667824 -.01148266  00000-0 -24998-1 0  9998,2 53418  53.2169 239.8381 0001122  85.4245 294.9313 15.46392600  1308,6805.426,93.12,428.055,426.528,0.0
53418.0,STARLINK-4481,PAYLOAD,2022-10-24 14:00:01,15.44760742,0.0001204,53.2174,236.6724,87.2655,44.5451,-0.026288,-0.01141983,0.0,0 STARLINK-4481,1 53418U 22097AG  22297.58334491 -.01141983  00000-0 -26288-1 0  9996,2 53418  53.2174 236.6724 0001204  87.2655  44.5451 15.44760742 12270,6810.218000000003,93.218,432.903,431.263,0.0
53418.0,STARLINK-4481,PAYLOAD,2022-10-24 22:00:00,15.43962041,0.0001252,53.2171,235.0929,79.10300000000002,106.9594,-0.027541,-0.01162262,0.0,0 STARLINK-4481,1 53418U 22097AG  22297.91667824 -.01162262  00000-0 -27541-1 0  9998,2 53418  53.2171 235.0929 0001252  79.1030 106.9594 15.43962041  1305,6812.566999999999,93.267,435.285,433.579,0.0
53418.0,STARLINK-4481,PAYLOAD,2022-10-25 14:00:01,15.42319919,0.0001167,53.2175,231.9384,99.1359,192.5194,-0.028574,-0.01142314,0.0,0 STARLINK-4481,1 53418U 22097AG  22298.58334491 -.01142314  00000-0 -28574-1 0  9996,2 53418  53.2175 231.9384 0001167  99.1359 192.5194 15.42319919 12421,6817.401,93.366,440.062,438.471,0.0
53418.0,STARLINK-4481,PAYLOAD,2022-10-25 22:00:01,15.41523333,0.0001048,53.2171,230.365,89.337,253.6993,-0.029992,-0.01165095,0.0,0 STARLINK-4481,1 53418U 22097AG  22298.91668981 -.01165095  00000-0 -29992-1 0  9993,2 53418  53.2171 230.3650 0001048  89.3370 253.6993 15.41523333  1305,6819.75,93.414,442.329,440.9,0.0
53418.0,STARLINK-4481,PAYLOAD,2022-10-26 14:00:01,15.39877066,0.0001129,53.2175,227.2219,96.7897,345.9102,-0.030909,-0.0113897,0.0,0 STARLINK-4481,1 53418U 22097AG  22299.58334491 -.01138970  00000-0 -30909-1 0  9995,2 53418  53.2175 227.2219 0001129  96.7897 345.9102 15.39877066 12582,6824.61,93.514,447.245,445.704,0.0
53418.0,STARLINK-4481,PAYLOAD,2022-10-26 22:00:00,15.39064807,0.0001258,53.2176,225.6541,91.9579,39.1335,-0.031819,-0.01141226,0.0,0 STARLINK-4481,1 53418U 22097AG  22299.91667824 -.01141226  00000-0 -31819-1 0  9990,2 53418  53.2176 225.6541 0001258  91.9579  39.1335 15.39064807  1309,6827.01,93.563,449.734,448.017,0.0
53418.0,STARLINK-4481,PAYLOAD,2022-10-27 08:00:01,15.38057868,0.0001267,53.2166,223.6985,97.7199,182.4805,-0.033323,-0.01154932,0.0,0 STARLINK-4481,1 53418U 22097AG  22300.33334491 -.01154932  00000-0 -33323-1 0  9990,2 53418  53.2166 223.6985 0001267  97.7199 182.4805 15.38057868 12696,6829.99,93.625,452.72,450.989,0.0
53418.0,STARLINK-4481,PAYLOAD,2022-10-27 14:00:01,15.37435526,0.0001309,53.2175,222.5229,98.8342,126.1731,-0.0334519999999999,-0.01137656,0.0,0 STARLINK-4481,1 53418U 22097AG  22300.58335648 -.01137656  00000-0 -33452-1 0  9999,2 53418  53.2175 222.5229 0001309  98.8342 126.1731 15.37435526  1303,6831.833000000001,93.662,454.592,452.804,0.0
53418.0,STARLINK-4481,PAYLOAD,2022-10-27 22:00:00,15.3662256,0.0001291,53.2175,220.9612,100.513,169.8882,-0.034386,-0.01138759,0.0,0 STARLINK-4481,1 53418U 22097AG  22300.91667824 -.01138759  00000-0 -34386-1 0  9992,2 53418  53.2175 220.9612 0001291 100.5130 169.8882 15.36622560  1303,6834.2419999999975,93.712,456.99,455.225,0.0
53418.0,STARLINK-4481,PAYLOAD,2022-10-28 08:00:01,15.3560731,0.0001131,53.2171,219.0118,96.1525,319.7593,-0.035601,-0.01140661,0.0,0 STARLINK-4481,1 53418U 22097AG  22301.33335648 -.01140661  00000-0 -35601-1 0  9991,2 53418  53.2171 219.0118 0001131  96.1525 319.7593 15.35607310 12852,6837.254,93.774,459.893,458.346,0.0
53418.0,STARLINK-4481,PAYLOAD,2022-10-28 14:00:01,15.349925400000002,0.0001088,53.2174,217.8416,101.556,256.8946,-0.036122,-0.01135173,0.0,0 STARLINK-4481,1 53418U 22097AG  22301.58335648 -.01135173  00000-0 -36122-1 0  9999,2 53418  53.2174 217.8416 0001088 101.5560 256.8946 15.34992540  1305,6839.08,93.812,461.689,460.201,0.0
53418.0,STARLINK-4481,PAYLOAD,2022-10-28 22:00:01,15.34186508,0.0001127999999999,53.217,216.286,81.2669,319.7049,-0.037467,-0.01146361,0.0,0 STARLINK-4481,1 53418U 22097AG  22301.91668981 -.01146361  00000-0 -37467-1 0  9999,2 53418  53.2170 216.2860 0001128  81.2669 319.7049 15.34186508  1308,6841.475,93.861,464.112,462.568,0.0
53418.0,STARLINK-4481,PAYLOAD,2022-10-29 08:00:01,15.33164649,0.0001346,53.2172,214.3432,76.4484,106.2428,-0.038441,-0.01139211,0.0,0 STARLINK-4481,1 53418U 22097AG  22302.33334491 -.01139211  00000-0 -38441-1 0  9991,2 53418  53.2172 214.3432 0001346  76.4484 106.2428 15.33164649 13008,6844.514,93.923,467.301,465.458,0.0
53418.0,STARLINK-4481,PAYLOAD,2022-10-29 12:00:00,15.32757803,0.0001093,53.2175,213.5657,79.1094,303.8671,-0.038956,-0.01139573,0.0,0 STARLINK-4481,1 53418U 22097AG  22302.50001157 -.01139573  00000-0 -38956-1 0  9992,2 53418  53.2175 213.5657 0001093  79.1094 303.8671 15.32757803  1301,6845.726,93.948,468.339,466.842,0.0
53418.0,STARLINK-4481,PAYLOAD,2022-10-29 22:00:01,15.3173913,0.0001367,53.2175,211.6274,101.9971,60.6856,-0.040117,-0.01136726,0.0,0 STARLINK-4481,1 53418U 22097AG  22302.91668981 -.01136726  00000-0 -40117-1 0  9990,2 53418  53.2175 211.6274 0001367 101.9971  60.6856 15.31739130  1302,6848.76,94.011,471.562,469.689,0.0
